[{"OBJECT_NAME":"ONEWEB-0121","OBJECT_ID":"2020-100K","EPOCH":"2025-11-07T06:59:13.113600","MEAN_MOTION":13.12443074,"ECCENTRICITY":0.00018522,"INCLINATION":87.8973,"RA_OF_ASC_NODE":34.7328,"ARG_OF_PERICENTER":105.4017,"MEAN_ANOMALY":254.7316,"EPHEMERIS_TYPE":0,"CLASSIFICATION_TYPE":"U","NORAD_CAT_ID":47267,"ELEMENT_SET_NO":999,"REV_AT_EPOCH":23553,"BSTAR":0.00075476078,"MEAN_MOTION_DOT":2.84e-6,"MEAN_MOTION_DDOT":0},{"OBJECT_NAME":"ONEWEB-0122","OBJECT_ID":"2020-100L","EPOCH":"2025-11-06T07:04:51.299616","MEAN_MOTION":13.12443199,"ECCENTRICITY":0.0001922,"INCLINATION":87.8973,"RA_OF_ASC_NODE":34.9334,"ARG_OF_PERICENTER":100.9846,"MEAN_ANOMALY":259.1498,"EPHEMERIS_TYPE":0,"CLASSIFICATION_TYPE":"U","NORAD_CAT_ID":47268,"ELEMENT_SET_NO":999,"REV_AT_EPOCH":23531,"BSTAR":0.00090243,"MEAN_MOTION_DOT":3.37e-6,"MEAN_MOTION_DDOT":0},{"OBJECT_NAME":"ONEWEB-0123","OBJECT_ID":"2020-100M","EPOCH":"2025-11-07T06:45:10.735200","MEAN_MOTION":13.12441748,"ECCENTRICITY":0.00016313,"INCLINATION":87.8977,"RA_OF_ASC_NODE":34.765,"ARG_OF_PERICENTER":99.7069,"MEAN_ANOMALY":260.4244,"EPHEMERIS_TYPE":0,"CLASSIFICATION_TYPE":"U","NORAD_CAT_ID":47269,"ELEMENT_SET_NO":999,"REV_AT_EPOCH":23558,"BSTAR":-9.0637228e-5,"MEAN_MOTION_DOT":-2.0e-7,"MEAN_MOTION_DDOT":0},{"OBJECT_NAME":"ONEWEB-0124","OBJECT_ID":"2020-100N","EPOCH":"2025-11-07T06:28:49.562112","MEAN_MOTION":13.12444008,"ECCENTRICITY":0.00017857,"INCLINATION":87.8975,"RA_OF_ASC_NODE":34.7707,"ARG_OF_PERICENTER":104.8835,"MEAN_ANOMALY":255.2491,"EPHEMERIS_TYPE":0,"CLASSIFICATION_TYPE":"U","NORAD_CAT_ID":47270,"ELEMENT_SET_NO":999,"REV_AT_EPOCH":23546,"BSTAR":-0.0024342085,"MEAN_MOTION_DOT":-8.63e-6,"MEAN_MOTION_DDOT":0},{"OBJECT_NAME":"ONEWEB-0125","OBJECT_ID":"2020-100P","EPOCH":"2025-11-07T05:56:08.662272","MEAN_MOTION":13.12442151,"ECCENTRICITY":0.0001454,"INCLINATION":87.8977,"RA_OF_ASC_NODE":34.7377,"ARG_OF_PERICENTER":103.5599,"MEAN_ANOMALY":256.5692,"EPHEMERIS_TYPE":0,"CLASSIFICATION_TYPE":"U","NORAD_CAT_ID":47271,"ELEMENT_SET_NO":999,"REV_AT_EPOCH":23552,"BSTAR":-6.0825618e-5,"MEAN_MOTION_DOT":-9.0e-8,"MEAN_MOTION_DDOT":0},{"OBJECT_NAME":"ONEWEB-0126","OBJECT_ID":"2020-100Q","EPOCH":"2025-11-07T06:26:41.756640","MEAN_MOTION":13.12444828,"ECCENTRICITY":0.00018036,"INCLINATION":87.8975,"RA_OF_ASC_NODE":34.7572,"ARG_OF_PERICENTER":98.4787,"MEAN_ANOMALY":261.6546,"EPHEMERIS_TYPE":0,"CLASSIFICATION_TYPE":"U","NORAD_CAT_ID":47272,"ELEMENT_SET_NO":999,"REV_AT_EPOCH":23559,"BSTAR":-0.001019648,"MEAN_MOTION_DOT":-3.54e-6,"MEAN_MOTION_DDOT":0},{"OBJECT_NAME":"ONEWEB-0127","OBJECT_ID":"2020-100R","EPOCH":"2025-11-07T05:37:28.149312","MEAN_MOTION":13.12442729,"ECCENTRICITY":0.00018309,"INCLINATION":87.8982,"RA_OF_ASC_NODE":34.7754,"ARG_OF_PERICENTER":96.9996,"MEAN_ANOMALY":263.134,"EPHEMERIS_TYPE":0,"CLASSIFICATION_TYPE":"U","NORAD_CAT_ID":47273,"ELEMENT_SET_NO":999,"REV_AT_EPOCH":23561,"BSTAR":0.00089730128,"MEAN_MOTION_DOT":3.36e-6,"MEAN_MOTION_DDOT":0},{"OBJECT_NAME":"ONEWEB-0128","OBJECT_ID":"2020-100S","EPOCH":"2025-11-07T06:10:09.551136","MEAN_MOTION":13.12442769,"ECCENTRICITY":0.0002005,"INCLINATION":87.8963,"RA_OF_ASC_NODE":34.7896,"ARG_OF_PERICENTER":104.2152,"MEAN_ANOMALY":255.9199,"EPHEMERIS_TYPE":0,"CLASSIFICATION_TYPE":"U","NORAD_CAT_ID":47274,"ELEMENT_SET_NO":999,"REV_AT_EPOCH":23563,"BSTAR":-0.00072490991,"MEAN_MOTION_DOT":-2.48e-6,"MEAN_MOTION_DDOT":0},{"OBJECT_NAME":"ONEWEB-0129","OBJECT_ID":"2020-100T","EPOCH":"2025-11-07T05:39:48.172608","MEAN_MOTION":13.12442853,"ECCENTRICITY":0.00025297,"INCLINATION":87.8977,"RA_OF_ASC_NODE":34.7433,"ARG_OF_PERICENTER":77.716,"MEAN_ANOMALY":282.4252,"EPHEMERIS_TYPE":0,"CLASSIFICATION_TYPE":"U","NORAD_CAT_ID":47275,"ELEMENT_SET_NO":999,"REV_AT_EPOCH":23556,"BSTAR":0.0011712426,"MEAN_MOTION_DOT":4.34e-6,"MEAN_MOTION_DDOT":0},{"OBJECT_NAME":"ONEWEB-0130","OBJECT_ID":"2020-100U","EPOCH":"2025-11-07T06:19:29.236512","MEAN_MOTION":13.12441226,"ECCENTRICITY":0.0001864,"INCLINATION":87.8975,"RA_OF_ASC_NODE":34.7338,"ARG_OF_PERICENTER":101.4405,"MEAN_ANOMALY":258.6933,"EPHEMERIS_TYPE":0,"CLASSIFICATION_TYPE":"U","NORAD_CAT_ID":47276,"ELEMENT_SET_NO":999,"REV_AT_EPOCH":23553,"BSTAR":-0.0012302471,"MEAN_MOTION_DOT":-4.3e-6,"MEAN_MOTION_DDOT":0},{"OBJECT_NAME":"ONEWEB-0131","OBJECT_ID":"2020-100V","EPOCH":"2025-11-07T06:14:49.185600","MEAN_MOTION":13.12441202,"ECCENTRICITY":0.00017814,"INCLINATION":87.8975,"RA_OF_ASC_NODE":34.7644,"ARG_OF_PERICENTER":102.931,"MEAN_ANOMALY":257.2017,"EPHEMERIS_TYPE":0,"CLASSIFICATION_TYPE":"U","NORAD_CAT_ID":47277,"ELEMENT_SET_NO":999,"REV_AT_EPOCH":23557,"BSTAR":-0.0009536394,"MEAN_MOTION_DOT":-3.3e-6,"MEAN_MOTION_DDOT":0},{"OBJECT_NAME":"ONEWEB-0132","OBJECT_ID":"2020-100W","EPOCH":"2025-11-06T16:18:37.735488","MEAN_MOTION":13.12443711,"ECCENTRICITY":0.00017697,"INCLINATION":87.8977,"RA_OF_ASC_NODE":34.8815,"ARG_OF_PERICENTER":102.1344,"MEAN_ANOMALY":257.9983,"EPHEMERIS_TYPE":0,"CLASSIFICATION_TYPE":"U","NORAD_CAT_ID":47278,"ELEMENT_SET_NO":999,"REV_AT_EPOCH":23539,"BSTAR":0.0011485744,"MEAN_MOTION_DOT":4.26e-6,"MEAN_MOTION_DDOT":0},{"OBJECT_NAME":"ONEWEB-0133","OBJECT_ID":"2020-100X","EPOCH":"2025-11-07T05:30:15.784704","MEAN_MOTION":13.12441797,"ECCENTRICITY":0.00018741,"INCLINATION":87.8967,"RA_OF_ASC_NODE":34.7364,"ARG_OF_PERICENTER":105.5703,"MEAN_ANOMALY":254.5633,"EPHEMERIS_TYPE":0,"CLASSIFICATION_TYPE":"U","NORAD_CAT_ID":47279,"ELEMENT_SET_NO":999,"REV_AT_EPOCH":23562,"BSTAR":0.0013242782,"MEAN_MOTION_DOT":4.89e-6,"MEAN_MOTION_DDOT":0},{"OBJECT_NAME":"ONEWEB-0134","OBJECT_ID":"2020-100Y","EPOCH":"2025-11-07T06:35:51.463680","MEAN_MOTION":13.12443354,"ECCENTRICITY":0.00020145,"INCLINATION":87.8977,"RA_OF_ASC_NODE":34.7202,"ARG_OF_PERICENTER":101.1996,"MEAN_ANOMALY":258.9359,"EPHEMERIS_TYPE":0,"CLASSIFICATION_TYPE":"U","NORAD_CAT_ID":47280,"ELEMENT_SET_NO":999,"REV_AT_EPOCH":23560,"BSTAR":-0.00059683869,"MEAN_MOTION_DOT":-2.02e-6,"MEAN_MOTION_DDOT":0},{"OBJECT_NAME":"ONEWEB-0135","OBJECT_ID":"2020-100Z","EPOCH":"2025-11-07T05:53:48.277824","MEAN_MOTION":13.124411,"ECCENTRICITY":0.00022047,"INCLINATION":87.8978,"RA_OF_ASC_NODE":34.7664,"ARG_OF_PERICENTER":104.8892,"MEAN_ANOMALY":255.248,"EPHEMERIS_TYPE":0,"CLASSIFICATION_TYPE":"U","NORAD_CAT_ID":47281,"ELEMENT_SET_NO":999,"REV_AT_EPOCH":23562,"BSTAR":7.2563036e-5,"MEAN_MOTION_DOT":3.9e-7,"MEAN_MOTION_DDOT":0},{"OBJECT_NAME":"ONEWEB-0136","OBJECT_ID":"2020-100AA","EPOCH":"2025-11-07T06:21:49.304736","MEAN_MOTION":13.12441071,"ECCENTRICITY":0.0002195,"INCLINATION":87.8971,"RA_OF_ASC_NODE":34.7303,"ARG_OF_PERICENTER":98.7503,"MEAN_ANOMALY":261.3874,"EPHEMERIS_TYPE":0,"CLASSIFICATION_TYPE":"U","NORAD_CAT_ID":47282,"ELEMENT_SET_NO":999,"REV_AT_EPOCH":23555,"BSTAR":-0.0011019808,"MEAN_MOTION_DOT":-3.84e-6,"MEAN_MOTION_DDOT":0},{"OBJECT_NAME":"ONEWEB-0137","OBJECT_ID":"2020-100AB","EPOCH":"2025-11-07T05:21:07.250112","MEAN_MOTION":13.12443786,"ECCENTRICITY":0.00016655,"INCLINATION":87.8978,"RA_OF_ASC_NODE":34.7453,"ARG_OF_PERICENTER":96.1107,"MEAN_ANOMALY":264.0211,"EPHEMERIS_TYPE":0,"CLASSIFICATION_TYPE":"U","NORAD_CAT_ID":47283,"ELEMENT_SET_NO":999,"REV_AT_EPOCH":23545,"BSTAR":0.0011795884,"MEAN_MOTION_DOT":4.37e-6,"MEAN_MOTION_DDOT":0}]
