ONEWEB-0121             
1 47267U 20100K   25311.29112400  .00000284  00000+0  75476-3 0  9995
2 47267  87.8973  34.7328 0001852 105.4017 254.7316 13.12443074235536
ONEWEB-0122             
1 47268U 20100L   25310.29503819  .00000337  00000+0  90243-3 0  9991
2 47268  87.8973  34.9334 0001922 100.9846 259.1498 13.12443199235318
ONEWEB-0123             
1 47269U 20100M   25311.28137425 -.00000020  00000+0 -90637-4 0  9997
2 47269  87.8977  34.7650 0001631  99.7069 260.4244 13.12441748235582
ONEWEB-0124             
1 47270U 20100N   25311.27001808 -.00000863  00000+0 -24342-2 0  9996
2 47270  87.8975  34.7707 0001785 104.8835 255.2491 13.12444008235469
ONEWEB-0125             
1 47271U 20100P   25311.24732248 -.00000009  00000+0 -60826-4 0  9994
2 47271  87.8977  34.7377 0001454 103.5599 256.5692 13.12442151235522
ONEWEB-0126             
1 47272U 20100Q   25311.26853885 -.00000354  00000+0 -10196-2 0  9994
2 47272  87.8975  34.7572 0001803  98.4787 261.6546 13.12444828235592
ONEWEB-0127             
1 47273U 20100R   25311.23435358  .00000336  00000+0  89730-3 0  9992
2 47273  87.8982  34.7754 0001830  96.9996 263.1340 13.12442729235618
ONEWEB-0128             
1 47274U 20100S   25311.25705499 -.00000248  00000+0 -72491-3 0  9991
2 47274  87.8963  34.7896 0002005 104.2152 255.9199 13.12442769235634
ONEWEB-0129             
1 47275U 20100T   25311.23597422  .00000434  00000+0  11712-2 0  9998
2 47275  87.8977  34.7433 0002529  77.7160 282.4252 13.12442853235562
ONEWEB-0130             
1 47276U 20100U   25311.26353283 -.00000430  00000+0 -12302-2 0  9991
2 47276  87.8975  34.7338 0001864 101.4405 258.6933 13.12441226235534
ONEWEB-0131             
1 47277U 20100V   25311.26029150 -.00000330  00000+0 -95364-3 0  9994
2 47277  87.8975  34.7644 0001781 102.9310 257.2017 13.12441202235570
ONEWEB-0132             
1 47278U 20100W   25310.67960342  .00000426  00000+0  11486-2 0  9992
2 47278  87.8977  34.8815 0001769 102.1344 257.9983 13.12443711235395
ONEWEB-0133             
1 47279U 20100X   25311.22934936  .00000489  00000+0  13243-2 0  9997
2 47279  87.8967  34.7364 0001874 105.5703 254.5633 13.12441797235629
ONEWEB-0134             
1 47280U 20100Y   25311.27490120 -.00000202  00000+0 -59684-3 0  9991
2 47280  87.8977  34.7202 0002014 101.1996 258.9359 13.12443354235608
ONEWEB-0135             
1 47281U 20100Z   25311.24569766  .00000039  00000+0  72563-4 0  9990
2 47281  87.8978  34.7664 0002204 104.8892 255.2480 13.12441100235622
ONEWEB-0136             
1 47282U 20100AA  25311.26515399 -.00000384  00000+0 -11020-2 0  9990
2 47282  87.8971  34.7303 0002195  98.7503 261.3874 13.12441071235559
ONEWEB-0137             
1 47283U 20100AB  25311.22300058  .00000437  00000+0  11796-2 0  9998
2 47283  87.8978  34.7453 0001665  96.1107 264.0211 13.12443786235455
